MALLIGYONG-1            
1 58400U 23179A   24005.20638299  .00005124  00000+0  22819-3 0  9995
2 58400  97.4253 254.3956 0017263 118.0883 242.2101 15.21761414  6786
